NOAA 15                 
1 25338U 98030A   23284.53220814  .00000406  00000+0  18678-3 0  9997
2 25338  98.5980 311.5603 0009867 340.0079  20.0714 14.26408366321846
NOAA 18                 
1 28654U 05018A   23284.48030191  .00000417  00000+0  24730-3 0  9994
2 28654  98.9008 358.2616 0014956  53.9485 306.3070 14.13026855947993
NOAA 19                 
1 33591U 09005A   23284.53948460  .00000370  00000+0  22353-3 0  9990
2 33591  99.0871 332.2587 0012892 275.7675  84.2027 14.12839610756374
METOP-B                 
1 38771U 12049A   23284.44802267  .00000319  00000+0  16565-3 0  9992
2 38771  98.6658 341.8066 0001188  92.0352 329.2009 14.21510076574061
SARAL                   
1 39086U 13009A   23284.48677813  .00000368  00000+0  15259-3 0  9993
2 39086  98.5489 108.1087 0001177 334.8575  25.2552 14.32274845555339
METOP-C                 
1 43689U 18087A   23284.47320542  .00000318  00000+0  16537-3 0  9996
2 43689  98.7180 342.1008 0003794  84.1395 276.0215 14.21481304255649
ANGELS                  
1 44876U 19092D   23284.44977552  .00010699  00000+0  45965-3 0  9998
2 44876  97.4779 108.4503 0012023 115.5615 244.6865 15.22792788211300
GAZELLE                 
1 54023U 22127A   23284.46149871  .00000429  00000+0  14394-3 0  9995
2 54023  98.3316 279.5309 0012129 265.1141  94.8664 14.41915774 53138
EOS-6 (OCEANSAT-3)      
1 54361U 22158A   23284.45834441  .00001000  00000+0  28692-3 0  9999
2 54361  98.3542  19.8765 0001222 110.5827 249.5497 14.47000791 46158
